ONEWEB-0706             
1 61611U 24188T   25196.24580972  .00019119  00000+0  54828-1 0  9996
2 61611  87.8829 103.4690 0001834  62.3400 297.7913 13.10111275 39252
ONEWEB-0707             
1 61612U 24188U   25196.48225922  .00000114  00000+0  29145-3 0  9995
2 61612  87.8817 103.3897 0001976  58.1925 301.9395 13.10370498 39223
ONEWEB-0708             
1 61613U 24188V   25196.50053518  .00000690  00000+0  19390-2 0  9998
2 61613  87.8869 103.4086 0001539  53.1420 306.9848 13.10372720 39208
